KUIPER-00157            
1 65970U 25228Z   25334.55300678  .00034855  00000+0  10096-2 0  9999
2 65970  51.8797  79.3759 0006822 334.3958  25.6689 15.35224507  8546
